GLOBALSTAR M069         
1 31573U 07020C   26165.58673725 -.00000057  00000+0  32898-3 0  9996
2 31573  52.0031 259.4877 0002395 142.4655 322.4372 12.23471048878480
GLOBALSTAR M072         
1 31574U 07020D   26166.11083755 -.00000106  00000+0 -29522-3 0  9991
2 31574  51.9922 105.7728 0001410 326.8229  46.2624 11.91658437874736
GLOBALSTAR M066         
1 32265U 07048C   26166.03439397 -.00000148  00000+0 -44878-3 0  9994
2 32265  51.9602  64.0921 0005456  39.3868 334.4058 12.30387808859966
GLOBALSTAR M079         
1 37188U 10054A   26166.14608758 -.00000119  00000+0 -87019-4 0  9998
2 37188  52.0032 114.8830 0000669  19.1203 354.0337 12.62266071722293
GLOBALSTAR M074         
1 37189U 10054B   26166.17247564 -.00000125  00000+0 -11807-3 0  9994
2 37189  52.0005 114.0676 0000503  49.4396 323.9012 12.62268388722906
GLOBALSTAR M076         
1 37190U 10054C   26166.11954986 -.00000112  00000+0 -45936-4 0  9990
2 37190  52.0024 114.4316 0000686  39.8014 333.0406 12.62261787722619
GLOBALSTAR M077         
1 37191U 10054D   26165.83716791 -.00000060  00000+0  32113-3 0  9992
2 37191  51.9924 185.2611 0002769 168.3415   3.1969 11.67547789720865
GLOBALSTAR M075         
1 37192U 10054E   26166.14724395 -.00000114  00000+0 -57758-4 0  9991
2 37192  51.9920 156.4037 0000115  19.8267  58.7839 12.62267401721681
GLOBALSTAR M073         
1 37193U 10054F   26166.05394906 -.00000106  00000+0 -10361-4 0  9993
2 37193  52.0068  70.7859 0000886  43.3790 329.6067 12.62262122723663
GLOBALSTAR M083         
1 37739U 11033A   26165.90868985 -.00000089  00000+0  80483-4 0  9994
2 37739  51.9874  19.4598 0000910  63.2445 310.7962 12.62263039692666
GLOBALSTAR M088         
1 37740U 11033B   26166.07540757 -.00000092  00000+0  65695-4 0  9991
2 37740  52.0221 285.3768 0000739 123.3680  46.9474 12.62268669688224
GLOBALSTAR M091         
1 37741U 11033C   26166.00939766 -.00000073  00000+0  16911-3 0  9992
2 37741  51.9991 248.5463 0000352 148.3323  22.8811 12.62263900689000
GLOBALSTAR M085         
1 37742U 11033D   26165.83762719 -.00000078  00000+0  14216-3 0  9996
2 37742  52.0103 200.3586 0000105 256.4266 273.9449 12.62264117689493
GLOBALSTAR M081         
1 37743U 11033E   26166.23887156 -.00000077  00000+0  14947-3 0  9995
2 37743  51.9936 201.5760 0000134 114.9036 319.2962 12.62265029689697
GLOBALSTAR M089         
1 37744U 11033F   26166.20094520 -.00000108  00000+0 -24284-4 0  9990
2 37744  51.9905 155.8495 0000346  88.9590 353.6716 12.62267204690531
GLOBALSTAR M084         
1 38040U 11080A   26165.88209553 -.00000095  00000+0  48312-4 0  9991
2 38040  52.0028  24.2997 0001079  82.0375 290.9234 12.62267515668476
GLOBALSTAR M080         
1 38041U 11080B   26165.93295708 -.00000088  00000+0  85995-4 0  9995
2 38041  52.0077  25.8624 0000361  70.3611 303.8657 12.62269353668601
GLOBALSTAR M082         
1 38042U 11080C   26166.22041102 -.00000098  00000+0  34785-4 0  9998
2 38042  52.0101 340.4882 0000550  94.2891  76.8924 12.62263527669340
GLOBALSTAR M092         
1 38043U 11080D   26166.00121229 -.00000104  00000+0 -40320-5 0  9996
2 38043  52.0093  71.5516 0000660  59.2367 314.3792 12.62266953667772
GLOBALSTAR M090         
1 38044U 11080E   26165.73721940 -.00000099  00000+0  23864-4 0  9997
2 38044  52.0142 335.9139 0000802  88.7411 284.6523 12.62269045669409
GLOBALSTAR M086         
1 38045U 11080F   26166.18951523 -.00000098  00000+0  32209-4 0  9992
2 38045  51.9915 334.4705 0001671  64.4872 106.0634 12.62286662669400
GLOBALSTAR M097         
1 39072U 13005A   26165.94569483 -.00000098  00000+0  29647-4 0  9997
2 39072  52.0047 250.1604 0000326 128.1759 231.9137 12.62247210616627
GLOBALSTAR M093         
1 39073U 13005B   26165.91894303 -.00000076  00000+0  15691-3 0  9996
2 39073  52.0100 243.5875 0000211  98.4164 261.6727 12.62265878616575
GLOBALSTAR M094         
1 39074U 13005C   26166.15639648 -.00000117  00000+0 -75117-4 0  9990
2 39074  51.9927 156.9822 0000355 356.0005   4.0858 12.62268588618214
GLOBALSTAR M096         
1 39075U 13005D   26165.85313256 -.00000073  00000+0  17421-3 0  9994
2 39075  52.0053 206.7064 0000053 220.7866 139.2997 12.62265631617092
GLOBALSTAR M078         
1 39076U 13005E   26166.06369088 -.00000186  00000+0 -45969-3 0  9997
2 39076  51.9889 290.0772 0000529 219.9317 140.1511 12.62257758615743
GLOBALSTAR M095         
1 39077U 13005F   26166.01126205 -.00000095  00000+0  49600-4 0  9990
2 39077  52.0093 287.8383 0000271 128.8500 231.2391 12.62263395615596
GLOBALSTAR M087         
1 52888U 22064A   26166.02451169 -.00000101  00000+0  14105-4 0  9991
2 52888  52.0007  69.0365 0000722  34.2403 325.8510 12.62269023190864
